NORAD_CAT_ID,OBJECT_NAME,OBJECT_TYPE,EPOCH,MEAN_MOTION,ECCENTRICITY,INCLINATION,RA_OF_ASC_NODE,ARG_OF_PERICENTER,MEAN_ANOMALY,BSTAR,MEAN_MOTION_DOT,MEAN_MOTION_DDOT,TLE_LINE0,TLE_LINE1,TLE_LINE2,SEMIMAJOR_AXIS,PERIOD,APOGEE,PERIGEE,DECAYED
55774.0,STARLINK-5812,PAYLOAD,2023-07-15 07:59:43,14.99307937,0.0002855,69.9993,145.9844,269.2436,90.8397,6.2771e-05,6.74e-06,0.0,0 STARLINK-5812,1 55774U 23028AK  23196.33314111  .00000674  00000-0  62771-4 0  9995,2 55774  69.9993 145.9844 0002855 269.2436  90.8397 14.99307937 21485,6947.17,96.044,571.019,567.052,0.0
55774.0,STARLINK-5812,PAYLOAD,2023-07-16 03:12:54,14.99037836,0.0002154,69.9989,143.9641,254.9363,105.1558,-0.0015643,-0.00019052,0.0,0 STARLINK-5812,1 55774U 23028AK  23197.13396627 -.00019052  00000-0 -15643-2 0  9992,2 55774  69.9989 143.9641 0002154 254.9363 105.1558 14.99037836 21606,6948.005,96.062,571.366,568.373,0.0
55774.0,STARLINK-5812,PAYLOAD,2023-07-16 06:25:18,14.98908393,0.0002838,69.9991,143.6277,273.3388,86.7446,-0.0041109,-0.00049534,0.0,0 STARLINK-5812,1 55774U 23028AK  23197.26757048 -.00049534  00000-0 -41109-2 0  9998,2 55774  69.9991 143.6277 0002838 273.3388  86.7446 14.98908393 21628,6948.405,96.07,572.242,568.298,0.0
55774.0,STARLINK-5812,PAYLOAD,2023-07-16 22:26:31,14.98729552,0.0002362,69.9984,141.9452,261.7405,98.3486,-0.0052068,-0.00062309,0.0,0 STARLINK-5812,1 55774U 23028AK  23197.93508358 -.00062309  00000-0 -52068-2 0  9991,2 55774  69.9984 141.9452 0002362 261.7405  98.3486 14.98729552 21721,6948.958,96.081,572.464,569.181,0.0
55774.0,STARLINK-5812,PAYLOAD,2023-07-18 00:04:23,14.98588736,0.0002954,69.9989,139.2506,272.1021,87.9799,-0.003987,-0.00047661,0.0,0 STARLINK-5812,1 55774U 23028AK  23199.00305021 -.00047661  00000-0 -39870-2 0  9993,2 55774  69.9989 139.2506 0002954 272.1021  87.9799 14.98588736 21888,6949.393,96.09,573.311,569.205,0.0
55774.0,STARLINK-5812,PAYLOAD,2023-07-19 06:00:00,14.98317545,0.0002947,70.0013,136.1067,275.8475,328.4125,0.0012805,0.00015214,0.0,0 STARLINK-5812,1 55774U 23028AK  23200.25001157  .00015214  00000-0  12805-2 0  9992,2 55774  70.0013 136.1067 0002947 275.8475 328.4125 14.98317545 22067,6950.231,96.108,574.145,570.048,0.0
55774.0,STARLINK-5812,PAYLOAD,2023-07-20 00:08:25,14.98331104,0.0002904,69.9991,134.2015,266.782,93.3007,-0.0001006,-1.293e-05,0.0,0 STARLINK-5812,1 55774U 23028AK  23201.00585449 -.00001293  00000-0 -10060-3 0  9993,2 55774  69.9991 134.2015 0002904 266.7820  93.3007 14.98331104 22184,6950.189,96.107,574.073,570.036,0.0
55774.0,STARLINK-5812,PAYLOAD,2023-07-21 04:58:50,14.98328758,0.0002903,69.9994,131.171,267.4262,92.6565,2.9785e-05,2.62e-06,0.0,0 STARLINK-5812,1 55774U 23028AK  23202.20753305  .00000262  00000-0  29785-4 0  9992,2 55774  69.9994 131.1710 0002903 267.4262  92.6565 14.98328758 22364,6950.197,96.107,574.079,570.044,0.0
55774.0,STARLINK-5812,PAYLOAD,2023-07-24 05:04:54,14.98325339,0.0002589,70.0004,123.5965,274.3821,85.7042,-5.5512e-05,-7.55e-06,0.0,0 STARLINK-5812,1 55774U 23028AK  23205.21173757 -.00000755  00000-0 -55512-4 0  9999,2 55774  70.0004 123.5965 0002589 274.3821  85.7042 14.98325339 22819,6950.207,96.107,573.872,570.273,0.0
55774.0,STARLINK-5812,PAYLOAD,2023-07-25 05:06:54,14.98332668,0.0002548,70.0006,121.0721,273.551,86.5357,2.0229e-05,1.48e-06,0.0,0 STARLINK-5812,1 55774U 23028AK  23206.21313056  .00000148  00000-0  20229-4 0  9999,2 55774  70.0006 121.0721 0002548 273.5510  86.5357 14.98332668 22962,6950.185,96.107,573.821,570.279,0.0
55774.0,STARLINK-5812,PAYLOAD,2023-07-26 03:32:47,14.98329804,0.0002767,69.999,118.7142,266.7637,93.3206,-1.9938e-05,-3.31e-06,0.0,0 STARLINK-5812,1 55774U 23028AK  23207.14777340 -.00000331  00000-0 -19938-4 0  9993,2 55774  69.9990 118.7142 0002767 266.7637  93.3206 14.98329804 23102,6950.193,96.107,573.982,570.135,0.0
55774.0,STARLINK-5812,PAYLOAD,2023-07-27 00:22:31,14.98334124,0.0003012,69.9989,116.5262,269.7297,90.3517,8.6698e-05,9.42e-06,0.0,0 STARLINK-5812,1 55774U 23028AK  23208.01564402  .00000942  00000-0  86698-4 0  9996,2 55774  69.9989 116.5262 0003012 269.7297  90.3517 14.98334124 23235,6950.18,96.107,574.139,569.952,0.0
55774.0,STARLINK-5812,PAYLOAD,2023-07-27 18:00:01,14.98326859,0.0003181,69.9985,114.6747,269.8988,90.1806,-7.8382e-05,-1.028e-05,0.0,0 STARLINK-5812,1 55774U 23028AK  23208.75001383 -.00001028  00000-0 -78382-4 0  9990,2 55774  69.9985 114.6747 0003181 269.8988  90.1806 14.98326859 23340,6950.203,96.107,574.278,569.857,0.0
55774.0,STARLINK-5812,PAYLOAD,2023-07-28 00:24:33,14.98322923,0.0003242,69.9987,114.0018,271.6288,88.45,-0.00011872,-1.509e-05,0.0,0 STARLINK-5812,1 55774U 23028AK  23209.01705804 -.00001509  00000-0 -11872-3 0  9993,2 55774  69.9987 114.0018 0003242 271.6288  88.4500 14.98322923 23382,6950.215,96.107,574.333,569.827,0.0
55774.0,STARLINK-5812,PAYLOAD,2023-07-28 18:02:02,14.98330889,0.0003498,69.9984,112.151,267.0001,93.0758,-7.7405e-05,-1.017e-05,0.0,0 STARLINK-5812,1 55774U 23028AK  23209.75141262 -.00001017  00000-0 -77405-4 0  9995,2 55774  69.9984 112.1510 0003498 267.0001  93.0758 14.98330889 23499,6950.19,96.107,574.486,569.624,0.0
55774.0,STARLINK-5812,PAYLOAD,2023-07-29 02:02:41,14.98340829,0.0003043,69.9993,111.3083,268.3392,91.7418,-5.3571e-05,-7.32e-06,0.0,0 STARLINK-5812,1 55774U 23028AK  23210.08520591 -.00000732  00000-0 -53571-4 0  9990,2 55774  69.9993 111.3083 0003043 268.3392  91.7418 14.98340829 23547,6950.159,96.106,574.139,569.909,0.0
55774.0,STARLINK-5812,PAYLOAD,2023-07-29 19:40:10,14.98325029,0.000292,69.9995,109.4571,265.2085,94.8741,0.00010464,1.156e-05,0.0,0 STARLINK-5812,1 55774U 23028AK  23210.81957045  .00001156  00000-0  10464-3 0  9991,2 55774  69.9995 109.4571 0002920 265.2085  94.8741 14.98325029 23657,6950.208,96.107,574.103,570.044,0.0
55774.0,STARLINK-5812,PAYLOAD,2023-07-31 02:06:44,14.98331978,0.0002662,69.9999,106.2596,263.4443,96.6413,-2.7618e-05,-4.22e-06,0.0,0 STARLINK-5812,1 55774U 23028AK  23212.08800965 -.00000422  00000-0 -27618-4 0  9997,2 55774  69.9999 106.2596 0002662 263.4443  96.6413 14.98331978 23841,6950.187,96.107,573.902,570.202,0.0
55774.0,STARLINK-5812,PAYLOAD,2023-08-01 02:08:45,14.9832537,0.0002773,69.9996,103.7354,265.9789,94.1053,3.7663e-05,3.56e-06,0.0,0 STARLINK-5812,1 55774U 23028AK  23213.08941163  .00000356  00000-0  37663-4 0  9999,2 55774  69.9996 103.7354 0002773 265.9789  94.1053 14.98325370 23993,6950.207,96.107,574.0,570.145,0.0
55774.0,STARLINK-5812,PAYLOAD,2023-08-02 02:10:45,14.98328758,0.0003071,69.9994,101.2099,271.6936,88.3872,1.6979e-05,1.1e-06,0.0,0 STARLINK-5812,1 55774U 23028AK  23214.09081000  .00000110  00000-0  16979-4 0  9991,2 55774  69.9994 101.2099 0003071 271.6936  88.3872 14.98328758 24145,6950.197,96.107,574.196,569.927,0.0
55774.0,STARLINK-5812,PAYLOAD,2023-08-03 02:12:46,14.98335788,0.0002958,69.9991,98.684,271.053,89.029,7.9722e-05,8.58e-06,0.0,0 STARLINK-5812,1 55774U 23028AK  23215.09220241  .00000858  00000-0  79722-4 0  9998,2 55774  69.9991  98.6840 0002958 271.0530  89.0290 14.98335788 24291,6950.175,96.107,574.096,569.984,0.0
55774.0,STARLINK-5812,PAYLOAD,2023-08-03 18:14:07,14.98326076,0.0002675,70.0001,97.0031,254.9181,105.1682,-4.0157e-05,-5.72e-06,0.0,0 STARLINK-5812,1 55774U 23028AK  23215.75981052 -.00000572  00000-0 -40157-4 0  9990,2 55774  70.0001  97.0031 0002675 254.9181 105.1682 14.98326076 24395,6950.205,96.107,573.929,570.211,0.0
55774.0,STARLINK-5812,PAYLOAD,2023-08-04 18:16:08,14.98311915,0.0002932,69.9995,94.4772,263.0863,96.9962,0.00036407,4.252e-05,0.0,0 STARLINK-5812,1 55774U 23028AK  23216.76121066  .00004252  00000-0  36407-3 0  9992,2 55774  69.9995  94.4772 0002932 263.0863  96.9962 14.98311915 24542,6950.249,96.108,574.152,570.076,0.0
55774.0,STARLINK-5812,PAYLOAD,2023-08-05 02:16:48,14.98334756,0.0002835,69.9995,93.6355,259.2085,100.8755,-3.1482e-06,-1.31e-06,0.0,0 STARLINK-5812,1 55774U 23028AK  23217.09500482 -.00000131  00000-0 -31482-5 0  9996,2 55774  69.9995  93.6355 0002835 259.2085 100.8755 14.98334756 24593,6950.178,96.107,574.014,570.073,0.0
55774.0,STARLINK-5812,PAYLOAD,2023-08-06 08:43:22,14.98321861,0.0002807,69.9991,90.4382,267.1765,92.9072,1.6597e-05,1.05e-06,0.0,0 STARLINK-5812,1 55774U 23028AK  23218.36345273  .00000105  00000-0  16597-4 0  9990,2 55774  69.9991  90.4382 0002807 267.1765  92.9072 14.98321861 24783,6950.218,96.108,574.034,570.132,0.0
55774.0,STARLINK-5812,PAYLOAD,2023-08-07 08:45:23,14.98323039,0.000285,69.9996,87.912,266.8098,93.2735,-9.7324e-05,-1.254e-05,0.0,0 STARLINK-5812,1 55774U 23028AK  23219.36485868 -.00001254  00000-0 -97324-4 0  9991,2 55774  69.9996  87.9120 0002850 266.8098  93.2735 14.98323039 24938,6950.214,96.107,574.06,570.099,0.0
55774.0,STARLINK-5812,PAYLOAD,2023-08-08 00:46:44,14.98323498,0.0003059,69.9992,86.2283,270.5868,89.4941,8.1683e-05,8.82e-06,0.0,0 STARLINK-5812,1 55774U 23028AK  23220.03245483  .00000882  00000-0  81683-4 0  9999,2 55774  69.9992  86.2283 0003059 270.5868  89.4941 14.98323498 25032,6950.213,96.107,574.204,569.952,0.0
55774.0,STARLINK-5812,PAYLOAD,2023-08-08 08:47:23,14.98336262,0.0003115,69.9988,85.3858,273.0469,87.0333,2.5246e-05,2.08e-06,0.0,0 STARLINK-5812,1 55774U 23028AK  23220.36624768  .00000208  00000-0  25246-4 0  9997,2 55774  69.9988  85.3858 0003115 273.0469  87.0333 14.98336262 25080,6950.174,96.107,574.204,569.874,0.0
55774.0,STARLINK-5812,PAYLOAD,2023-08-09 08:49:24,14.98329406,0.0002999,69.9988,82.8597,270.8073,89.2743,8.3236e-05,9e-06,0.0,0 STARLINK-5812,1 55774U 23028AK  23221.36764810  .00000900  00000-0  83236-4 0  9993,2 55774  69.9988  82.8597 0002999 270.8073  89.2743 14.98329406 25235,6950.195,96.107,574.144,569.975,0.0
55774.0,STARLINK-5812,PAYLOAD,2023-08-10 15:15:57,14.98336112,0.0003101,69.9988,79.6622,272.4386,87.6418,-0.0001055,-1.352e-05,0.0,0 STARLINK-5812,1 55774U 23028AK  23222.63608581 -.00001352  00000-0 -10550-3 0  9998,2 55774  69.9988  79.6622 0003101 272.4386  87.6418 14.98336112 25423,6950.174,96.107,574.194,569.884,0.0
